# TLE解析器
## 介绍
TLE解析器为[卫星百科](https://sat.huijiwiki.com/)而设计，用于将TLE数据解析为卫星的轨道六根数。
## 输入
示例：
```
0 ISS (ZARYA)
1 25544U 98067A   24137.20363426  .00020937  00000-0  35601-3 0  9992
2 25544  51.6377 113.9222 0003310 173.3272   0.0417 15.51383595453585
```
每一行对应模板的一个匿名参数。
## 输出
轨道六根数的计算结果将显示在UI中，包含：
1. 半长轴 a (km)
2. 离心率 e
3. 轨道倾角 i (度)
4. 轨道倾角 i (弧度)
5. 升交点赤经 Ω (度)
6. 升交点赤经 Ω (弧度)
7. 近地点幅角 ω (度)
8. 近地点幅角 ω (弧度)
9. 真近点角 ν (度)
10. 真近点角 ν (弧度)
11. 平近点角 M (度)
12. 卫星编号
